{
  "norad_id": 64605,
  "name": "STARLINK-34516",
  "history": [
    {
      "epoch": "2026-03-28T19:02:30.846048",
      "apogee_km": 475.8398944358105,
      "perigee_km": 474.5110371486926,
      "latitude_deg": -10.16682934153645,
      "longitude_deg": -3.3323932797648013,
      "semi_major_axis_km": 6853.312465792251,
      "eccentricity": 9.695e-05,
      "inclination_deg": 53.1568,
      "raan_deg": 246.2251,
      "arg_perigee_deg": 65.1045,
      "mean_anomaly_deg": 295.0057,
      "mean_motion_rev_day": 15.30213264
    }
  ]
}